{"type": "FeatureCollection", "features": [ {"type": "Feature", "properties": {"norad_id": 38552, "name": "METEOSAT-10 (MSG-3)", "group": "weather", "lat": 3.90814044708338, "lon": 174.8688357803851, "alt_km": 35786.881073385804, "timestamp": "2025-12-20T05:41:49.660975+00:00", "meta": {"OBJECT_NAME": "METEOSAT-10 (MSG-3)", "OBJECT_ID": "2012-035B", "EPOCH": "2025-12-19T08:07:49.924128", "MEAN_MOTION": 1.00276524, "ECCENTRICITY": 6.93e-05, "INCLINATION": 4.2433, "RA_OF_ASC_NODE": 61.706, "ARG_OF_PERICENTER": 270.066, "MEAN_ANOMALY": 238.6463, "EPHEMERIS_TYPE": 0, "CLASSIFICATION_TYPE": "U", "NORAD_CAT_ID": 38552, "ELEMENT_SET_NO": 999, "REV_AT_EPOCH": 4905, "BSTAR": 0, "MEAN_MOTION_DOT": 1.7e-07, "MEAN_MOTION_DDOT": 0}, "tle": {"line1": "1 38552U 12035B   25353.33877227  .00000017  00000+0  00000+0 0  9997", "line2": "2 38552   4.2433  61.7060 0000693 270.0660 238.6463  1.00276524 49057"}}, "geometry": {"type": "Point", "coordinates": [174.8688357803851, 3.90814044708338]}}, {"type": "Feature", "properties": {"norad_id": 38771, "name": "METOP-B", "group": "weather", "lat": -81.0561280721681, "lon": 120.12371466895715, "alt_km": 829.7595560789823, "timestamp": "2025-12-20T05:41:49.660987+00:00", "meta": {"OBJECT_NAME": "METOP-B", "OBJECT_ID": "2012-049A", "EPOCH": "2025-12-19T21:39:47.095488", "MEAN_MOTION": 14.21410919, "ECCENTRICITY": 0.00031592, "INCLINATION": 98.6789, "RA_OF_ASC_NODE": 43.7397, "ARG_OF_PERICENTER": 128.9434, "MEAN_ANOMALY": 231.2026, "EPHEMERIS_TYPE": 0, "CLASSIFICATION_TYPE": "U", "NORAD_CAT_ID": 38771, "ELEMENT_SET_NO": 999, "REV_AT_EPOCH": 68779, "BSTAR": 6.5931197e-05, "MEAN_MOTION_DOT": 1.01e-06, "MEAN_MOTION_DDOT": 0}, "tle": {"line1": "1 38771U 12049A   25353.90262842  .00000101  00000+0  65931-4 0  9992", "line2": "2 38771  98.6789  43.7397 0003159 128.9434 231.2026 14.21410919687792"}}, "geometry": {"type": "Point", "coordinates": [120.12371466895715, -81.0561280721681]}}, {"type": "Feature", "properties": {"norad_id": 39216, "name": "INSAT-3D", "group": "weather", "lat": -0.9444686090232246, "lon": -56.03495896445343, "alt_km": 35784.608811667735, "timestamp": "2025-12-20T05:41:49.661000+00:00", "meta": {"OBJECT_NAME": "INSAT-3D", "OBJECT_ID": "2013-038B", "EPOCH": "2025-12-17T17:21:59.330304", "MEAN_MOTION": 1.00267779, "ECCENTRICITY": 0.00012009, "INCLINATION": 1.4572, "RA_OF_ASC_NODE": 84.9421, "ARG_OF_PERICENTER": 166.0293, "MEAN_ANOMALY": 225.6028, "EPHEMERIS_TYPE": 0, "CLASSIFICATION_TYPE": "U", "NORAD_CAT_ID": 39216, "ELEMENT_SET_NO": 999, "REV_AT_EPOCH": 4526, "BSTAR": 0, "MEAN_MOTION_DOT": -3.16e-06, "MEAN_MOTION_DDOT": 0}, "tle": {"line1": "1 39216U 13038B   25351.72360336 -.00000316  00000+0  00000+0 0  9991", "line2": "2 39216   1.4572  84.9421 0001200 166.0293 225.6028  1.00267779 45261"}}, "geometry": {"type": "Point", "coordinates": [-56.03495896445343, -0.9444686090232246]}}, {"type": "Feature", "properties": {"norad_id": 39260, "name": "FENGYUN 3C", "group": "weather", "lat": 4.830477808398784, "lon": -29.17120480353675, "alt_km": 852.6177694420667, "timestamp": "2025-12-20T05:41:49.661013+00:00", "meta": {"OBJECT_NAME": "FENGYUN 3C", "OBJECT_ID": "2013-052A", "EPOCH": "2025-12-19T22:53:20.779872", "MEAN_MOTION": 14.15698427, "ECCENTRICITY": 0.00146891, "INCLINATION": 98.477, "RA_OF_ASC_NODE": 331.2811, "ARG_OF_PERICENTER": 175.0187, "MEAN_ANOMALY": 185.1136, "EPHEMERIS_TYPE": 0, "CLASSIFICATION_TYPE": "U", "NORAD_CAT_ID": 39260, "ELEMENT_SET_NO": 999, "REV_AT_EPOCH": 63320, "BSTAR": 4.695231e-05, "MEAN_MOTION_DOT": 5.1e-07, "MEAN_MOTION_DDOT": 0}, "tle": {"line1": "1 39260U 13052A   25353.95371273  .00000051  00000+0  46952-4 0  9991", "line2": "2 39260  98.4770 331.2811 0014689 175.0187 185.1136 14.15698427633209"}}, "geometry": {"type": "Point", "coordinates": [-29.17120480353675, 4.830477808398784]}}, {"type": "Feature", "properties": {"norad_id": 40069, "name": "METEOR-M 2", "group": "weather", "lat": 39.66011463784191, "lon": 158.6477249021195, "alt_km": 814.8954379663501, "timestamp": "2025-12-20T05:41:49.661024+00:00", "meta": {"OBJECT_NAME": "METEOR-M 2", "OBJECT_ID": "2014-037A", "EPOCH": "2025-12-19T22:17:02.108832", "MEAN_MOTION": 14.2138927, "ECCENTRICITY": 0.00053718, "INCLINATION": 98.49, "RA_OF_ASC_NODE": 331.2374, "ARG_OF_PERICENTER": 187.0414, "MEAN_ANOMALY": 173.069, "EPHEMERIS_TYPE": 0, "CLASSIFICATION_TYPE": "U", "NORAD_CAT_ID": 40069, "ELEMENT_SET_NO": 999, "REV_AT_EPOCH": 59385, "BSTAR": 9.7285837e-05, "MEAN_MOTION_DOT": 1.71e-06, "MEAN_MOTION_DDOT": 0}, "tle": {"line1": "1 40069U 14037A   25353.92849663  .00000171  00000+0  97286-4 0  9993", "line2": "2 40069  98.4900 331.2374 0005371 187.0414 173.0690 14.21389270593858"}}, "geometry": {"type": "Point", "coordinates": [158.6477249021195, 39.66011463784191]}}, {"type": "Feature", "properties": {"norad_id": 40267, "name": "HIMAWARI-8", "group": "weather", "lat": -0.012588431893835269, "lon": -44.806429491096736, "alt_km": 35782.859988301265, "timestamp": "2025-12-20T05:41:49.661036+00:00", "meta": {"OBJECT_NAME": "HIMAWARI-8", "OBJECT_ID": "2014-060A", "EPOCH": "2025-12-19T19:04:03.567072", "MEAN_MOTION": 1.00271352, "ECCENTRICITY": 8.593e-05, "INCLINATION": 0.0293, "RA_OF_ASC_NODE": 121.6816, "ARG_OF_PERICENTER": 172.8726, "MEAN_ANOMALY": 220.7679, "EPHEMERIS_TYPE": 0, "CLASSIFICATION_TYPE": "U", "NORAD_CAT_ID": 40267, "ELEMENT_SET_NO": 999, "REV_AT_EPOCH": 4096, "BSTAR": 0, "MEAN_MOTION_DOT": -2.51e-06, "MEAN_MOTION_DDOT": 0}, "tle": {"line1": "1 40267U 14060A   25353.79448573 -.00000251  00000+0  00000+0 0  9992", "line2": "2 40267   0.0293 121.6816 0000859 172.8726 220.7679  1.00271352 40968"}}, "geometry": {"type": "Point", "coordinates": [-44.806429491096736, -0.012588431893835269]}}, {"type": "Feature", "properties": {"norad_id": 40367, "name": "FENGYUN 2G", "group": "weather", "lat": -1.6963115312096146, "lon": -86.25603438304013, "alt_km": 35777.89301861567, "timestamp": "2025-12-20T05:41:49.661049+00:00", "meta": {"OBJECT_NAME": "FENGYUN 2G", "OBJECT_ID": "2014-090A", "EPOCH": "2025-12-19T18:56:11.651136", "MEAN_MOTION": 1.00261653, "ECCENTRICITY": 0.00026778, "INCLINATION": 5.1853, "RA_OF_ASC_NODE": 75.0175, "ARG_OF_PERICENTER": 203.1106, "MEAN_ANOMALY": 193.8582, "EPHEMERIS_TYPE": 0, "CLASSIFICATION_TYPE": "U", "NORAD_CAT_ID": 40367, "ELEMENT_SET_NO": 999, "REV_AT_EPOCH": 4020, "BSTAR": 0, "MEAN_MOTION_DOT": -2.79e-06, "MEAN_MOTION_DDOT": 0}, "tle": {"line1": "1 40367U 14090A   25353.78902374 -.00000279  00000+0  00000+0 0  9999", "line2": "2 40367   5.1853  75.0175 0002677 203.1106 193.8582  1.00261653 40200"}}, "geometry": {"type": "Point", "coordinates": [-86.25603438304013, -1.6963115312096146]}}, {"type": "Feature", "properties": {"norad_id": 40732, "name": "METEOSAT-11 (MSG-4)", "group": "weather", "lat": 2.5571598279854864, "lon": -176.2525402474429, "alt_km": 35783.08031299856, "timestamp": "2025-12-20T05:41:49.661061+00:00", "meta": {"OBJECT_NAME": "METEOSAT-11 (MSG-4)", "OBJECT_ID": "2015-034A", "EPOCH": "2025-12-19T20:09:19.816416", "MEAN_MOTION": 1.00269713, "ECCENTRICITY": 8.424e-05, "INCLINATION": 2.7539, "RA_OF_ASC_NODE": 71.9834, "ARG_OF_PERICENTER": 136.058, "MEAN_ANOMALY": 192.179, "EPHEMERIS_TYPE": 0, "CLASSIFICATION_TYPE": "U", "NORAD_CAT_ID": 40732, "ELEMENT_SET_NO": 999, "REV_AT_EPOCH": 541, "BSTAR": 0, "MEAN_MOTION_DOT": 8.3e-07, "MEAN_MOTION_DDOT": 0}, "tle": {"line1": "1 40732U 15034A   25353.83981269  .00000083  00000+0  00000+0 0  9992", "line2": "2 40732   2.7539  71.9834 0000842 136.0580 192.1790  1.00269713  5411"}}, "geometry": {"type": "Point", "coordinates": [-176.2525402474429, 2.5571598279854864]}}, {"type": "Feature", "properties": {"norad_id": 41105, "name": "ELEKTRO-L 2", "group": "weather", "lat": 6.249083101218561, "lon": 160.00204574675786, "alt_km": 35792.98088739685, "timestamp": "2025-12-20T05:41:49.661073+00:00", "meta": {"OBJECT_NAME": "ELEKTRO-L 2", "OBJECT_ID": "2015-074A", "EPOCH": "2025-12-19T09:46:17.993280", "MEAN_MOTION": 1.00272637, "ECCENTRICITY": 0.0003545, "INCLINATION": 6.2415, "RA_OF_ASC_NODE": 72.7491, "ARG_OF_PERICENTER": 209.2952, "MEAN_ANOMALY": 298.3067, "EPHEMERIS_TYPE": 0, "CLASSIFICATION_TYPE": "U", "NORAD_CAT_ID": 41105, "ELEMENT_SET_NO": 999, "REV_AT_EPOCH": 3670, "BSTAR": 0, "MEAN_MOTION_DOT": -9.8e-07, "MEAN_MOTION_DDOT": 0}, "tle": {"line1": "1 41105U 15074A   25353.40715270 -.00000098  00000+0  00000+0 0  9998", "line2": "2 41105   6.2415  72.7491 0003545 209.2952 298.3067  1.00272637 36706"}}, "geometry": {"type": "Point", "coordinates": [160.00204574675786, 6.249083101218561]}}, {"type": "Feature", "properties": {"norad_id": 41752, "name": "INSAT-3DR", "group": "weather", "lat": 0.0069826468504734516, "lon": -111.5534060891455, "alt_km": 35730.99409174229, "timestamp": "2025-12-20T05:41:49.661085+00:00", "meta": {"OBJECT_NAME": "INSAT-3DR", "OBJECT_ID": "2016-054A", "EPOCH": "2025-12-19T19:07:12.495360", "MEAN_MOTION": 1.00271614, "ECCENTRICITY": 0.00141341, "INCLINATION": 0.1091, "RA_OF_ASC_NODE": 86.4186, "ARG_OF_PERICENTER": 185.1345, "MEAN_ANOMALY": 177.8779, "EPHEMERIS_TYPE": 0, "CLASSIFICATION_TYPE": "U", "NORAD_CAT_ID": 41752, "ELEMENT_SET_NO": 999, "REV_AT_EPOCH": 3402, "BSTAR": 0, "MEAN_MOTION_DOT": -5.3e-07, "MEAN_MOTION_DDOT": 0}, "tle": {"line1": "1 41752U 16054A   25353.79667240 -.00000053  00000+0  00000+0 0  9991", "line2": "2 41752   0.1091  86.4186 0014134 185.1345 177.8779  1.00271614 34022"}}, "geometry": {"type": "Point", "coordinates": [-111.5534060891455, 0.0069826468504734516]}}]}